NORAD_CAT_ID,OBJECT_NAME,OBJECT_TYPE,EPOCH,MEAN_MOTION,ECCENTRICITY,INCLINATION,RA_OF_ASC_NODE,ARG_OF_PERICENTER,MEAN_ANOMALY,BSTAR,MEAN_MOTION_DOT,MEAN_MOTION_DDOT,TLE_LINE0,TLE_LINE1,TLE_LINE2,SEMIMAJOR_AXIS,PERIOD,APOGEE,PERIGEE,DECAYED
55790.0,STARLINK-5813,PAYLOAD,2024-05-28 21:28:03,14.98331743,0.0003212,69.9995,42.8053,263.9193,96.16,0.0002467,2.852e-05,0.0,0 STARLINK-5813,1 55790U 23028BB  24149.89448588  .00002852  00000-0  24670-3 0  9994,2 55790  69.9995  42.8053 0003212 263.9193  96.1600 14.98331743 69693,6950.188,96.107,574.285,569.82,0.0
55790.0,STARLINK-5813,PAYLOAD,2024-05-29 02:16:27,14.98339241,0.0003092,69.9998,42.3004,263.1995,96.8812,0.00032242,3.757e-05,0.0,0 STARLINK-5813,1 55790U 23028BB  24150.09475820  .00003757  00000-0  32242-3 0  9996,2 55790  69.9998  42.3004 0003092 263.1995  96.8812 14.98339241 69711,6950.164,96.106,574.178,569.88,0.0
55790.0,STARLINK-5813,PAYLOAD,2024-05-29 19:53:56,14.98334258,0.0002716,70.0005,40.4481,256.1479,103.9378,9.7146e-05,1.066e-05,0.0,0 STARLINK-5813,1 55790U 23028BB  24150.82912466  .00001066  00000-0  97146-4 0  9995,2 55790  70.0005  40.4481 0002716 256.1479 103.9378 14.98334258 69824,6950.18,96.107,573.932,570.157,0.0
55790.0,STARLINK-5813,PAYLOAD,2024-05-29 21:30:04,14.98337704,0.0002776,70.0005,40.2802,253.6774,106.408,4.9656e-05,5e-06,0.0,0 STARLINK-5813,1 55790U 23028BB  24150.89588374  .00000500  00000-0  49656-4 0  9994,2 55790  70.0005  40.2802 0002776 253.6774 106.4080 14.98337704 69844,6950.169,96.107,573.963,570.105,0.0
55790.0,STARLINK-5813,PAYLOAD,2024-05-30 02:18:28,14.98337005,0.0002858,70.0005,39.7762,267.6646,92.4185,2.9597e-05,2.6e-06,0.0,0 STARLINK-5813,1 55790U 23028BB  24151.09616452  .00000260  00000-0  29597-4 0  9991,2 55790  70.0005  39.7762 0002858 267.6646  92.4185 14.98337005 69873,6950.171,96.107,574.023,570.05,0.0
55790.0,STARLINK-5813,PAYLOAD,2024-05-30 21:32:04,14.9833908,0.0002903,70.0004,37.7565,261.1191,98.9639,-6.0773e-05,-8.18e-06,0.0,0 STARLINK-5813,1 55790U 23028BB  24151.89727964 -.00000818  00000-0 -60773-4 0  9992,2 55790  70.0004  37.7565 0002903 261.1191  98.9639 14.98339080 69999,6950.165,96.106,574.047,570.012,0.0
55790.0,STARLINK-5813,PAYLOAD,2024-05-31 02:20:28,14.98340262,0.0002808,70.0003,37.2507,258.8511,101.2333,-4.025e-05,-5.73e-06,0.0,0 STARLINK-5813,1 55790U 23028BB  24152.09755692 -.00000573  00000-0 -40250-4 0  9990,2 55790  70.0003  37.2507 0002808 258.8511 101.2333 14.98340262 70010,6950.161,96.106,573.978,570.075,0.0
55790.0,STARLINK-5813,PAYLOAD,2024-05-31 23:10:13,14.98335377,0.0002821,70.0002,35.0617,266.6781,93.4055,1.9234e-05,1.37e-06,0.0,0 STARLINK-5813,1 55790U 23028BB  24152.96543412  .00000137  00000-0  19234-4 0  9993,2 55790  70.0002  35.0617 0002821 266.6781  93.4055 14.98335377 70157,6950.176,96.107,574.002,570.081,0.0
55790.0,STARLINK-5813,PAYLOAD,2024-06-01 02:22:29,14.98334871,0.0002933,70.0003,34.7259,267.6008,92.4815,3.5254e-06,-5.1e-07,0.0,0 STARLINK-5813,1 55790U 23028BB  24153.09895431 -.00000051  00000-0  35254-5 0  9996,2 55790  70.0003  34.7259 0002933 267.6008  92.4815 14.98334871 70165,6950.178,96.107,574.081,570.004,0.0
55790.0,STARLINK-5813,PAYLOAD,2024-06-01 08:47:01,14.98334265,0.0003073,69.9998,34.05,274.8865,85.1943,-2.4049e-05,-3.8e-06,0.0,0 STARLINK-5813,1 55790U 23028BB  24153.36599445 -.00000380  00000-0 -24049-4 0  9997,2 55790  69.9998  34.0500 0003073 274.8865  85.1943 14.98334265 70218,6950.18,96.107,574.18,569.909,0.0
55790.0,STARLINK-5813,PAYLOAD,2024-06-01 19:59:58,14.98328584,0.0002866,70.0004,32.8739,270.7238,89.3592,-2.3662e-05,-3.75e-06,0.0,0 STARLINK-5813,1 55790U 23028BB  24153.83331852 -.00000375  00000-0 -23662-4 0  9999,2 55790  70.0004  32.8739 0002866 270.7238  89.3592 14.98328584 70276,6950.197,96.107,574.054,570.07,0.0
55790.0,STARLINK-5813,PAYLOAD,2024-06-02 15:13:35,14.98303479,0.0002915,70.001,30.8527,271.2033,88.8792,0.00037876,4.426e-05,0.0,0 STARLINK-5813,1 55790U 23028BB  24154.63443958  .00004426  00000-0  37876-3 0  9999,2 55790  70.0010  30.8527 0002915 271.2033  88.8792 14.98303479 70407,6950.275,96.109,574.166,570.114,0.0
55790.0,STARLINK-5813,PAYLOAD,2024-06-03 00:50:23,14.98329741,0.0002843,70.0003,29.8435,272.6127,87.4706,-1.7994e-05,-3.08e-06,0.0,0 STARLINK-5813,1 55790U 23028BB  24155.03499807 -.00000308  00000-0 -17994-4 0  9995,2 55790  70.0003  29.8435 0002843 272.6127  87.4706 14.98329741 70459,6950.194,96.107,574.035,570.083,0.0
55790.0,STARLINK-5813,PAYLOAD,2024-06-03 08:51:03,14.98355299,0.0002794,70.0015,29.0013,274.9158,85.1682,-0.00040818,-4.963e-05,0.0,0 STARLINK-5813,1 55790U 23028BB  24155.36879023 -.00004963  00000-0 -40818-3 0  9994,2 55790  70.0015  29.0013 0002794 274.9158  85.1682 14.98355299 70501,6950.115,96.105,573.922,570.038,0.0
55790.0,STARLINK-5813,PAYLOAD,2024-06-03 15:15:36,14.98330251,0.0002853,70.0003,28.3284,269.1173,90.966,6.3796e-05,6.68e-06,0.0,0 STARLINK-5813,1 55790U 23028BB  24155.63583531  .00000668  00000-0  63796-4 0  9997,2 55790  70.0003  28.3284 0002853 269.1173  90.9660 14.98330251 70544,6950.192,96.107,574.04,570.074,0.0
55790.0,STARLINK-5813,PAYLOAD,2024-06-03 21:40:07,14.98346372,0.0002874,70.0003,27.6551,266.1689,93.9142,0.00021583,2.484e-05,0.0,0 STARLINK-5813,1 55790U 23028BB  24155.90285954  .00002484  00000-0  21583-3 0  9990,2 55790  70.0003  27.6551 0002874 266.1689  93.9142 14.98346372 70599,6950.142,96.106,574.005,570.01,0.0
55790.0,STARLINK-5813,PAYLOAD,2024-06-04 00:52:20,14.98381952,0.0002932,69.9998,27.3181,261.4636,98.6191,0.00057844,6.825e-05,0.0,0 STARLINK-5813,1 55790U 23028BB  24156.03634519  .00006825  00000-0  57844-3 0  9992,2 55790  69.9998  27.3181 0002932 261.4636  98.6191 14.98381952 70601,6950.032,96.104,573.935,569.859,0.0
55790.0,STARLINK-5813,PAYLOAD,2024-06-04 08:53:05,14.983211,0.0002943,70.0015,26.4757,272.3379,87.7443,-9.3416e-05,-1.207e-05,0.0,0 STARLINK-5813,1 55790U 23028BB  24156.37019902 -.00001207  00000-0 -93416-4 0  9999,2 55790  70.0015  26.4757 0002943 272.3379  87.7443 14.98321100 70653,6950.22,96.108,574.131,570.04,0.0
55790.0,STARLINK-5813,PAYLOAD,2024-06-04 21:42:10,14.98319797,0.000302,70.0014,25.1289,270.3679,89.7134,-0.00012142,-1.541e-05,0.0,0 STARLINK-5813,1 55790U 23028BB  24156.90428302 -.00001541  00000-0 -12142-3 0  9993,2 55790  70.0014  25.1289 0003020 270.3679  89.7134 14.98319797 70744,6950.224,96.108,574.188,569.99,0.0
55790.0,STARLINK-5813,PAYLOAD,2024-06-05 08:55:06,14.98324351,0.0002981,70.0006,23.9511,270.4148,89.6669,-7.4184e-05,-9.78e-06,0.0,0 STARLINK-5813,1 55790U 23028BB  24157.37160072 -.00000978  00000-0 -74184-4 0  9990,2 55790  70.0006  23.9511 0002981 270.4148  89.6669 14.98324351 70807,6950.21,96.107,574.147,570.004,0.0
55790.0,STARLINK-5813,PAYLOAD,2024-06-05 21:44:10,14.98337597,0.0002909,70.0004,22.6046,267.772,92.3105,-0.00014803,-1.859e-05,0.0,0 STARLINK-5813,1 55790U 23028BB  24157.90567509 -.00001859  00000-0 -14803-3 0  9995,2 55790  70.0004  22.6046 0002909 267.7720  92.3105 14.98337597 70889,6950.169,96.107,574.056,570.013,0.0
55790.0,STARLINK-5813,PAYLOAD,2024-06-06 00:56:26,14.98337972,0.0002568,70.0005,22.2678,266.0564,94.0301,-0.00013747,-1.733e-05,0.0,0 STARLINK-5813,1 55790U 23028BB  24158.03919435 -.00001733  00000-0 -13747-3 0  9996,2 55790  70.0005  22.2678 0002568 266.0564  94.0301 14.98337972 70914,6950.168,96.106,573.818,570.248,0.0
55790.0,STARLINK-5813,PAYLOAD,2024-06-07 00:58:28,14.98320941,0.0003021,70.0001,19.7431,271.1021,88.9792,6.8594e-05,7.25e-06,0.0,0 STARLINK-5813,1 55790U 23028BB  24159.04060210  .00000725  00000-0  68594-4 0  9995,2 55790  70.0001  19.7431 0003021 271.1021  88.9792 14.98320941 71058,6950.221,96.108,574.186,569.986,0.0
55790.0,STARLINK-5813,PAYLOAD,2024-06-07 07:23:00,14.98317604,0.0003031,69.9998,19.0697,271.161,88.9201,2.4942e-05,2.05e-06,0.0,0 STARLINK-5813,1 55790U 23028BB  24159.30764731  .00000205  00000-0  24942-4 0  9995,2 55790  69.9998  19.0697 0003031 271.1610  88.9201 14.98317604 71105,6950.231,96.108,574.203,569.99,0.0
55790.0,STARLINK-5813,PAYLOAD,2024-06-07 21:48:12,14.98329174,0.0003032,69.9993,17.5527,274.977,85.1043,2.4772e-05,2.03e-06,0.0,0 STARLINK-5813,1 55790U 23028BB  24159.90848237  .00000203  00000-0  24772-4 0  9994,2 55790  69.9993  17.5527 0003032 274.9770  85.1043 14.98329174 71191,6950.195,96.107,574.168,569.953,0.0
55790.0,STARLINK-5813,PAYLOAD,2024-06-08 01:00:28,14.9833245,0.000305,70.0016,17.2159,277.2472,82.834,5.9672e-05,6.19e-06,0.0,0 STARLINK-5813,1 55790U 23028BB  24160.04199923  .00000619  00000-0  59672-4 0  9990,2 55790  70.0016  17.2159 0003050 277.2472  82.8340 14.98332450 71200,6950.185,96.107,574.17,569.931,0.0
55790.0,STARLINK-5813,PAYLOAD,2024-06-08 13:49:33,14.98333986,0.0002565,70.0014,15.8694,282.4259,77.6613,0.00011085,1.23e-05,0.0,0 STARLINK-5813,1 55790U 23028BB  24160.57607800  .00001230  00000-0  11085-3 0  9991,2 55790  70.0014  15.8694 0002565 282.4259  77.6613 14.98333986 71296,6950.181,96.107,573.828,570.263,0.0
55790.0,STARLINK-5813,PAYLOAD,2024-06-08 21:50:13,14.98316813,0.0003084,70.0005,15.0304,270.0543,90.0263,0.00042516,4.982e-05,0.0,0 STARLINK-5813,1 55790U 23028BB  24160.90987269  .00004982  00000-0  42516-3 0  9998,2 55790  70.0005  15.0304 0003084 270.0543  90.0263 14.98316813 71348,6950.234,96.108,574.242,569.955,0.0
55790.0,STARLINK-5813,PAYLOAD,2024-06-09 01:02:29,14.98238234,0.0003023,70.0005,14.6935,256.9645,103.1177,0.0017351,0.00020622,0.0,0 STARLINK-5813,1 55790U 23028BB  24161.04339657  .00020622  00000-0  17351-2 0  9993,2 55790  70.0005  14.6935 0003023 256.9645 103.1177 14.98238234 71353,6950.477,96.113,574.443,570.241,0.0
55790.0,STARLINK-5813,PAYLOAD,2024-06-09 13:51:34,14.98330476,0.0002625,70.0009,13.347,265.3061,94.7798,-2.6601e-05,-4.1e-06,0.0,0 STARLINK-5813,1 55790U 23028BB  24161.57748011 -.00000410  00000-0 -26601-4 0  9994,2 55790  70.0009  13.3470 0002625 265.3061  94.7798 14.98330476 71445,6950.191,96.107,573.881,570.232,0.0
